CCSDS_OMM_VERS = 2.0
CREATION_DATE  = 
ORIGINATOR     = 

OBJECT_NAME    = SILVERSAT
OBJECT_ID      = 1998-067XV
CENTER_NAME    = EARTH
REF_FRAME      = TEME
TIME_SYSTEM    = UTC
MEAN_ELEMENT_THEORY = SGP/SGP4

EPOCH          = 2026-02-10T10:07:58.028160
MEAN_MOTION    = 15.63499610
ECCENTRICITY   = .000238
INCLINATION    = 51.6263
RA_OF_ASC_NODE = 203.5767
ARG_OF_PERICENTER = 260.7067
MEAN_ANOMALY   = 99.3658

EPHEMERIS_TYPE = 0
CLASSIFICATION_TYPE = U
NORAD_CAT_ID   = 66909
ELEMENT_SET_NO = 999
REV_AT_EPOCH   = 1091
BSTAR          = .12816E-2
MEAN_MOTION_DOT = .122301E-2
MEAN_MOTION_DDOT = 0

CCSDS_OMM_VERS = 2.0
CREATION_DATE  = 
ORIGINATOR     = 

OBJECT_NAME    = ISS OBJECT XW
OBJECT_ID      = 1998-067XW
CENTER_NAME    = EARTH
REF_FRAME      = TEME
TIME_SYSTEM    = UTC
MEAN_ELEMENT_THEORY = SGP/SGP4

EPOCH          = 2026-02-09T16:06:53.258400
MEAN_MOTION    = 15.61822223
ECCENTRICITY   = .00011904
INCLINATION    = 51.6257
RA_OF_ASC_NODE = 207.5584
ARG_OF_PERICENTER = 285.1610
MEAN_ANOMALY   = 74.9252

EPHEMERIS_TYPE = 0
CLASSIFICATION_TYPE = U
NORAD_CAT_ID   = 66910
ELEMENT_SET_NO = 999
REV_AT_EPOCH   = 1079
BSTAR          = .11031161E-2
MEAN_MOTION_DOT = .98201E-3
MEAN_MOTION_DDOT = 0

CCSDS_OMM_VERS = 2.0
CREATION_DATE  = 
ORIGINATOR     = 

OBJECT_NAME    = ISS OBJECT XX
OBJECT_ID      = 1998-067XX
CENTER_NAME    = EARTH
REF_FRAME      = TEME
TIME_SYSTEM    = UTC
MEAN_ELEMENT_THEORY = SGP/SGP4

EPOCH          = 2026-02-09T18:03:21.045024
MEAN_MOTION    = 15.64618808
ECCENTRICITY   = .00028011
INCLINATION    = 51.6234
RA_OF_ASC_NODE = 206.6102
ARG_OF_PERICENTER = 282.1139
MEAN_ANOMALY   = 77.9542

EPHEMERIS_TYPE = 0
CLASSIFICATION_TYPE = U
NORAD_CAT_ID   = 66911
ELEMENT_SET_NO = 999
REV_AT_EPOCH   = 1080
BSTAR          = .14448482E-2
MEAN_MOTION_DOT = .144596E-2
MEAN_MOTION_DDOT = 0

CCSDS_OMM_VERS = 2.0
CREATION_DATE  = 
ORIGINATOR     = 

OBJECT_NAME    = ISS OBJECT XY
OBJECT_ID      = 1998-067XY
CENTER_NAME    = EARTH
REF_FRAME      = TEME
TIME_SYSTEM    = UTC
MEAN_ELEMENT_THEORY = SGP/SGP4

EPOCH          = 2026-02-10T10:35:06.990432
MEAN_MOTION    = 15.59018449
ECCENTRICITY   = .0000374
INCLINATION    = 51.6287
RA_OF_ASC_NODE = 204.4559
ARG_OF_PERICENTER = 197.8529
MEAN_ANOMALY   = 162.2451

EPHEMERIS_TYPE = 0
CLASSIFICATION_TYPE = U
NORAD_CAT_ID   = 66912
ELEMENT_SET_NO = 999
REV_AT_EPOCH   = 1089
BSTAR          = .90483E-3
MEAN_MOTION_DOT = .71984E-3
MEAN_MOTION_DDOT = 0

CCSDS_OMM_VERS = 2.0
CREATION_DATE  = 
ORIGINATOR     = 

OBJECT_NAME    = ISS OBJECT XZ
OBJECT_ID      = 1998-067XZ
CENTER_NAME    = EARTH
REF_FRAME      = TEME
TIME_SYSTEM    = UTC
MEAN_ELEMENT_THEORY = SGP/SGP4

EPOCH          = 2026-02-10T11:13:06.314880
MEAN_MOTION    = 15.49613290
ECCENTRICITY   = .0010876
INCLINATION    = 51.6304
RA_OF_ASC_NODE = 206.8773
ARG_OF_PERICENTER = 99.0096
MEAN_ANOMALY   = 261.2124

EPHEMERIS_TYPE = 0
CLASSIFICATION_TYPE = U
NORAD_CAT_ID   = 67683
ELEMENT_SET_NO = 999
REV_AT_EPOCH   = 56
BSTAR          = .62572E-3
MEAN_MOTION_DOT = .35E-3
MEAN_MOTION_DDOT = 0

CCSDS_OMM_VERS = 2.0
CREATION_DATE  = 
ORIGINATOR     = 

OBJECT_NAME    = GXIBA-1
OBJECT_ID      = 1998-067YA
CENTER_NAME    = EARTH
REF_FRAME      = TEME
TIME_SYSTEM    = UTC
MEAN_ELEMENT_THEORY = SGP/SGP4

EPOCH          = 2026-02-10T11:10:50.298816
MEAN_MOTION    = 15.50183981
ECCENTRICITY   = .0012743
INCLINATION    = 51.6304
RA_OF_ASC_NODE = 206.8683
ARG_OF_PERICENTER = 93.6445
MEAN_ANOMALY   = 266.6001

EPHEMERIS_TYPE = 0
CLASSIFICATION_TYPE = U
NORAD_CAT_ID   = 67684
ELEMENT_SET_NO = 999
REV_AT_EPOCH   = 56
BSTAR          = .1143E-2
MEAN_MOTION_DOT = .6595E-3
MEAN_MOTION_DDOT = 0

CCSDS_OMM_VERS = 2.0
CREATION_DATE  = 
ORIGINATOR     = 

OBJECT_NAME    = CORAL
OBJECT_ID      = 1998-067YB
CENTER_NAME    = EARTH
REF_FRAME      = TEME
TIME_SYSTEM    = UTC
MEAN_ELEMENT_THEORY = SGP/SGP4

EPOCH          = 2026-02-10T11:12:36.193248
MEAN_MOTION    = 15.49728993
ECCENTRICITY   = .0012806
INCLINATION    = 51.6305
RA_OF_ASC_NODE = 206.8754
ARG_OF_PERICENTER = 94.3864
MEAN_ANOMALY   = 265.8588

EPHEMERIS_TYPE = 0
CLASSIFICATION_TYPE = U
NORAD_CAT_ID   = 67685
ELEMENT_SET_NO = 999
REV_AT_EPOCH   = 56
BSTAR          = .73274E-3
MEAN_MOTION_DOT = .41304E-3
MEAN_MOTION_DDOT = 0

CCSDS_OMM_VERS = 2.0
CREATION_DATE  = 
ORIGINATOR     = 

OBJECT_NAME    = ISS OBJECT YC
OBJECT_ID      = 1998-067YC
CENTER_NAME    = EARTH
REF_FRAME      = TEME
TIME_SYSTEM    = UTC
MEAN_ELEMENT_THEORY = SGP/SGP4

EPOCH          = 2026-02-10T11:12:15.560064
MEAN_MOTION    = 15.49834387
ECCENTRICITY   = .0007747
INCLINATION    = 51.6308
RA_OF_ASC_NODE = 206.8743
ARG_OF_PERICENTER = 71.3076
MEAN_ANOMALY   = 288.8753

EPHEMERIS_TYPE = 0
CLASSIFICATION_TYPE = U
NORAD_CAT_ID   = 67686
ELEMENT_SET_NO = 999
REV_AT_EPOCH   = 56
BSTAR          = .84889E-3
MEAN_MOTION_DOT = .48049E-3
MEAN_MOTION_DDOT = 0

CCSDS_OMM_VERS = 2.0
CREATION_DATE  = 
ORIGINATOR     = 

OBJECT_NAME    = LEOPARD
OBJECT_ID      = 1998-067YD
CENTER_NAME    = EARTH
REF_FRAME      = TEME
TIME_SYSTEM    = UTC
MEAN_ELEMENT_THEORY = SGP/SGP4

EPOCH          = 2026-02-10T11:12:48.556224
MEAN_MOTION    = 15.49681131
ECCENTRICITY   = .000784
INCLINATION    = 51.6309
RA_OF_ASC_NODE = 206.8762
ARG_OF_PERICENTER = 72.9248
MEAN_ANOMALY   = 287.2599

EPHEMERIS_TYPE = 0
CLASSIFICATION_TYPE = U
NORAD_CAT_ID   = 67687
ELEMENT_SET_NO = 999
REV_AT_EPOCH   = 48
BSTAR          = .67906E-3
MEAN_MOTION_DOT = .38088E-3
MEAN_MOTION_DDOT = 0

CCSDS_OMM_VERS = 2.0
CREATION_DATE  = 
ORIGINATOR     = 

OBJECT_NAME    = ISS OBJECT YE
OBJECT_ID      = 1998-067YE
CENTER_NAME    = EARTH
REF_FRAME      = TEME
TIME_SYSTEM    = UTC
MEAN_ELEMENT_THEORY = SGP/SGP4

EPOCH          = 2026-02-10T11:12:20.750976
MEAN_MOTION    = 15.49794693
ECCENTRICITY   = .0007721
INCLINATION    = 51.6310
RA_OF_ASC_NODE = 206.8749
ARG_OF_PERICENTER = 71.3423
MEAN_ANOMALY   = 288.8403

EPHEMERIS_TYPE = 0
CLASSIFICATION_TYPE = U
NORAD_CAT_ID   = 67688
ELEMENT_SET_NO = 999
REV_AT_EPOCH   = 48
BSTAR          = .78362E-3
MEAN_MOTION_DOT = .44235E-3
MEAN_MOTION_DDOT = 0

