SILVERSAT               
1 66909U 98067XV  26041.42219940  .00122301  00000+0  12816-2 0  9992
2 66909  51.6263 203.5767 0002380 260.7067  99.3658 15.63499610 10911
ISS OBJECT XW           
1 66910U 98067XW  26040.67144975  .00098201  00000+0  11031-2 0  9994
2 66910  51.6257 207.5584 0001190 285.1610  74.9252 15.61822223 10793
ISS OBJECT XX           
1 66911U 98067XX  26040.75232691  .00144596  00000+0  14448-2 0  9991
2 66911  51.6234 206.6102 0002801 282.1139  77.9542 15.64618808 10800
ISS OBJECT XY           
1 66912U 98067XY  26041.44105313  .00071984  00000+0  90483-3 0  9993
2 66912  51.6287 204.4559 0000374 197.8529 162.2451 15.59018449 10894
ISS OBJECT XZ           
1 67683U 98067XZ  26041.46743420  .00035000  00000+0  62572-3 0  9995
2 67683  51.6304 206.8773 0010876  99.0096 261.2124 15.49613290   568
GXIBA-1                 
1 67684U 98067YA  26041.46585994  .00065950  00000+0  11430-2 0  9999
2 67684  51.6304 206.8683 0012743  93.6445 266.6001 15.50183981   566
CORAL                   
1 67685U 98067YB  26041.46708557  .00041304  00000+0  73274-3 0  9994
2 67685  51.6305 206.8754 0012806  94.3864 265.8588 15.49728993   567
ISS OBJECT YC           
1 67686U 98067YC  26041.46684676  .00048049  00000+0  84889-3 0  9997
2 67686  51.6308 206.8743 0007747  71.3076 288.8753 15.49834387   561
LEOPARD                 
1 67687U 98067YD  26041.46722866  .00038088  00000+0  67906-3 0  9995
2 67687  51.6309 206.8762 0007840  72.9248 287.2599 15.49681131   485
ISS OBJECT YE           
1 67688U 98067YE  26041.46690684  .00044235  00000+0  78362-3 0  9997
2 67688  51.6310 206.8749 0007721  71.3423 288.8403 15.49794693   488
